start=new Date('2023-01-24T00:00:00.000Z').valueOf();
sats=[{"MEAN_ELEMENT_THEORY":"SGP4","TLE_LINE1":"1 46043U 20055S   23023.52525022  .00000364  00000-0  43302-4 0  9991","MEAN_MOTION_DOT":"0.00000364","EPHEMERIS_TYPE":"0","SEMIMAJOR_AXIS":"6925.363","ELEMENT_SET_NO":"999","MEAN_ANOMALY":"271.9666","MEAN_MOTION":"15.06395190","INCLINATION":"53.0533","OBJECT_ID":"2020-055S","RA_OF_ASC_NODE":"209.5028","PERIAPSIS":"546.364","LAUNCH_DATE":"2020-08-07","CENTER_NAME":"EARTH","ECCENTRICITY":"0.00012480","SITE":"AFETR","DECAY_DATE":null,"RCS_SIZE":"LARGE","EPOCH":"2023-01-23T12:36:21.619008","ARG_OF_PERICENTER":"88.1466","MEAN_MOTION_DDOT":"0.0000000000000","FILE":"3758716","NORAD_CAT_ID":"46043","BSTAR":"0.00004330200000","CLASSIFICATION_TYPE":"U","PERIOD":"95.592","GP_ID":"223611398","REF_FRAME":"TEME","TIME_SYSTEM":"UTC","TLE_LINE2":"2 46043  53.0533 209.5028 0001248  88.1466 271.9666 15.06395190136378","OBJECT_TYPE":"PAYLOAD","APOAPSIS":"548.093","COUNTRY_CODE":"US","REV_AT_EPOCH":"13637","OBJECT_NAME":"STARLINK-1582"},{"LAUNCH_DATE":"2020-08-07","PERIAPSIS":"546.382","CENTER_NAME":"EARTH","ECCENTRICITY":"0.00012170","RCS_SIZE":"LARGE","DECAY_DATE":null,"SITE":"AFETR","EPOCH":"2023-01-22T19:25:17.833152","ARG_OF_PERICENTER":"85.5485","MEAN_ELEMENT_THEORY":"SGP4","TLE_LINE1":"1 46044U 20055T   23022.80923418  .00000223  00000-0  33846-4 0  9999","MEAN_MOTION_DOT":"0.00000223","SEMIMAJOR_AXIS":"6925.360","EPHEMERIS_TYPE":"0","ELEMENT_SET_NO":"999","MEAN_ANOMALY":"274.5643","MEAN_MOTION":"15.06396336","INCLINATION":"53.0518","RA_OF_ASC_NODE":"212.7131","OBJECT_ID":"2020-055T","TLE_LINE2":"2 46044  53.0518 212.7131 0001217  85.5485 274.5643 15.06396336136277","OBJECT_TYPE":"PAYLOAD","APOAPSIS":"548.068","COUNTRY_CODE":"US","REV_AT_EPOCH":"13627","OBJECT_NAME":"STARLINK-1584","MEAN_MOTION_DDOT":"0.0000000000000","NORAD_CAT_ID":"46044","FILE":"3758105","BSTAR":"0.00003384600000","CLASSIFICATION_TYPE":"U","PERIOD":"95.592","GP_ID":"223598232","TIME_SYSTEM":"UTC","REF_FRAME":"TEME"},{"OBJECT_NAME":"STARLINK-1591","OBJECT_TYPE":"PAYLOAD","APOAPSIS":"548.154","TLE_LINE2":"2 46045  53.0519 209.6952 0001332  91.4908 268.6234 15.06393998136371","COUNTRY_CODE":"US","REV_AT_EPOCH":"13637","GP_ID":"223611161","PERIOD":"95.593","REF_FRAME":"TEME","TIME_SYSTEM":"UTC","MEAN_MOTION_DDOT":"0.0000000000000","BSTAR":"-0.00001274400000","CLASSIFICATION_TYPE":"U","FILE":"3758717","NORAD_CAT_ID":"46045","DECAY_DATE":null,"RCS_SIZE":"LARGE","SITE":"AFETR","ARG_OF_PERICENTER":"91.4908","EPOCH":"2023-01-23T11:37:58.633824","ECCENTRICITY":"0.00013320","LAUNCH_DATE":"2020-08-07","PERIAPSIS":"546.309","CENTER_NAME":"EARTH","MEAN_ANOMALY":"268.6234","OBJECT_ID":"2020-055U","RA_OF_ASC_NODE":"209.6952","MEAN_MOTION":"15.06393998","INCLINATION":"53.0519","MEAN_ELEMENT_THEORY":"SGP4","MEAN_MOTION_DOT":"-0.00000471","EPHEMERIS_TYPE":"0","SEMIMAJOR_AXIS":"6925.367","ELEMENT_SET_NO":"999","TLE_LINE1":"1 46045U 20055U   23023.48470641 -.00000471  00000-0 -12744-4 0  9991"},{"PERIOD":"95.592","GP_ID":"223610703","TIME_SYSTEM":"UTC","REF_FRAME":"TEME","MEAN_MOTION_DDOT":"0.0000000000000","NORAD_CAT_ID":"46047","FILE":"3758698","CLASSIFICATION_TYPE":"U","BSTAR":"-0.00005025600000","OBJECT_NAME":"STARLINK-1524","TLE_LINE2":"2 46047  53.0553 199.8935 0001181  93.2331 266.8793 15.06401246136505","APOAPSIS":"548.028","OBJECT_TYPE":"PAYLOAD","REV_AT_EPOCH":"13650","COUNTRY_CODE":"US","MEAN_ANOMALY":"266.8793","INCLINATION":"53.0553","MEAN_MOTION":"15.06401246","OBJECT_ID":"2020-055W","RA_OF_ASC_NODE":"199.8935","MEAN_ELEMENT_THEORY":"SGP4","TLE_LINE1":"1 46047U 20055W   23023.43771035 -.00001030  00000-0 -50256-4 0  9991","SEMIMAJOR_AXIS":"6925.345","EPHEMERIS_TYPE":"0","ELEMENT_SET_NO":"999","MEAN_MOTION_DOT":"-0.00001030","SITE":"AFETR","DECAY_DATE":null,"RCS_SIZE":"LARGE","EPOCH":"2023-01-23T10:30:18.174240","ARG_OF_PERICENTER":"93.2331","CENTER_NAME":"EARTH","PERIAPSIS":"546.392","LAUNCH_DATE":"2020-08-07","ECCENTRICITY":"0.00011810"},{"OBJECT_NAME":"STARLINK-1527","REV_AT_EPOCH":"13655","COUNTRY_CODE":"US","TLE_LINE2":"2 46048  53.0540 198.4327 0001208  91.6838 268.4289 15.06410366136552","APOAPSIS":"548.018","OBJECT_TYPE":"PAYLOAD","TIME_SYSTEM":"UTC","REF_FRAME":"TEME","PERIOD":"95.591","GP_ID":"223617712","NORAD_CAT_ID":"46048","FILE":"3759024","CLASSIFICATION_TYPE":"U","BSTAR":"0.00016810000000","MEAN_MOTION_DDOT":"0.0000000000000","EPOCH":"2023-01-23T18:22:41.008224","ARG_OF_PERICENTER":"91.6838","RCS_SIZE":"LARGE","DECAY_DATE":null,"SITE":"AFETR","CENTER_NAME":"EARTH","LAUNCH_DATE":"2020-08-07","PERIAPSIS":"546.345","ECCENTRICITY":"0.00012080","INCLINATION":"53.0540","MEAN_MOTION":"15.06410366","OBJECT_ID":"2020-055X","RA_OF_ASC_NODE":"198.4327","MEAN_ANOMALY":"268.4289","TLE_LINE1":"1 46048U 20055X   23023.76575241  .00002224  00000-0  16810-3 0  9990","EPHEMERIS_TYPE":"0","SEMIMAJOR_AXIS":"6925.317","ELEMENT_SET_NO":"999","MEAN_MOTION_DOT":"0.00002224","MEAN_ELEMENT_THEORY":"SGP4"},{"OBJECT_NAME":"STARLINK-1530","COUNTRY_CODE":"US","REV_AT_EPOCH":"13653","OBJECT_TYPE":"PAYLOAD","APOAPSIS":"547.921","TLE_LINE2":"2 46049  53.0534 198.4418 0000986  86.6308 273.4793 15.06391879136536","REF_FRAME":"TEME","TIME_SYSTEM":"UTC","GP_ID":"223617699","PERIOD":"95.593","BSTAR":"0.00003709100000","CLASSIFICATION_TYPE":"U","FILE":"3759019","NORAD_CAT_ID":"46049","MEAN_MOTION_DDOT":"0.0000000000000","ARG_OF_PERICENTER":"86.6308","EPOCH":"2023-01-23T18:17:23.689536","DECAY_DATE":null,"RCS_SIZE":"LARGE","SITE":"AFETR","ECCENTRICITY":"0.00009860","LAUNCH_DATE":"2020-08-07","PERIAPSIS":"546.556","CENTER_NAME":"EARTH","RA_OF_ASC_NODE":"198.4418","OBJECT_ID":"2020-055Y","MEAN_MOTION":"15.06391879","INCLINATION":"53.0534","MEAN_ANOMALY":"273.4793","MEAN_MOTION_DOT":"0.00000271","SEMIMAJOR_AXIS":"6925.373","ELEMENT_SET_NO":"999","EPHEMERIS_TYPE":"0","TLE_LINE1":"1 46049U 20055Y   23023.76207974  .00000271  00000-0  37091-4 0  9991","MEAN_ELEMENT_THEORY":"SGP4"},{"MEAN_ANOMALY":"281.4552","INCLINATION":"53.0528","MEAN_MOTION":"15.06399856","OBJECT_ID":"2020-055AA","RA_OF_ASC_NODE":"198.2850","MEAN_ELEMENT_THEORY":"SGP4","TLE_LINE1":"1 46051U 20055AA  23023.79892753  .00003451  00000-0  25043-3 0  9998","EPHEMERIS_TYPE":"0","SEMIMAJOR_AXIS":"6925.349","ELEMENT_SET_NO":"999","MEAN_MOTION_DOT":"0.00003451","SITE":"AFETR","DECAY_DATE":null,"RCS_SIZE":"LARGE","EPOCH":"2023-01-23T19:10:27.338592","ARG_OF_PERICENTER":"78.6570","CENTER_NAME":"EARTH","LAUNCH_DATE":"2020-08-07","PERIAPSIS":"546.399","ECCENTRICITY":"0.00011770","PERIOD":"95.592","GP_ID":"223618121","TIME_SYSTEM":"UTC","REF_FRAME":"TEME","MEAN_MOTION_DDOT":"0.0000000000000","FILE":"3759030","NORAD_CAT_ID":"46051","CLASSIFICATION_TYPE":"U","BSTAR":"0.00025043000000","OBJECT_NAME":"STARLINK-1540","TLE_LINE2":"2 46051  53.0528 198.2850 0001177  78.6570 281.4552 15.06399856136563","APOAPSIS":"548.029","OBJECT_TYPE":"PAYLOAD","REV_AT_EPOCH":"13656","COUNTRY_CODE":"US"},{"MEAN_ANOMALY":"264.7966","INCLINATION":"53.0527","MEAN_MOTION":"15.06393787","RA_OF_ASC_NODE":"198.3431","OBJECT_ID":"2020-055AB","MEAN_ELEMENT_THEORY":"SGP4","TLE_LINE1":"1 46052U 20055AB  23023.78418885 -.00000245  00000-0  24083-5 0  9992","ELEMENT_SET_NO":"999","SEMIMAJOR_AXIS":"6925.368","EPHEMERIS_TYPE":"0","MEAN_MOTION_DOT":"-0.00000245","DECAY_DATE":null,"RCS_SIZE":"LARGE","SITE":"AFETR","EPOCH":"2023-01-23T18:49:13.916640","ARG_OF_PERICENTER":"95.3134","CENTER_NAME":"EARTH","PERIAPSIS":"546.557","LAUNCH_DATE":"2020-08-07","ECCENTRICITY":"0.00009750","PERIOD":"95.593","GP_ID":"223618151","TIME_SYSTEM":"UTC","REF_FRAME":"TEME","MEAN_MOTION_DDOT":"0.0000000000000","NORAD_CAT_ID":"46052","FILE":"3759032","CLASSIFICATION_TYPE":"U","BSTAR":"0.00000240830000","OBJECT_NAME":"STARLINK-1541","TLE_LINE2":"2 46052  53.0527 198.3431 0000975  95.3134 264.7966 15.06393787136555","APOAPSIS":"547.908","OBJECT_TYPE":"PAYLOAD","REV_AT_EPOCH":"13655","COUNTRY_CODE":"US"},{"OBJECT_NAME":"STARLINK-1543","TLE_LINE2":"2 46053  53.0515 199.5282 0001354  97.2898 262.8245 15.06405744136512","APOAPSIS":"548.134","OBJECT_TYPE":"PAYLOAD","REV_AT_EPOCH":"13651","COUNTRY_CODE":"US","PERIOD":"95.592","GP_ID":"223610808","TIME_SYSTEM":"UTC","REF_FRAME":"TEME","MEAN_MOTION_DDOT":"0.0000000000000","FILE":"3758706","NORAD_CAT_ID":"46053","CLASSIFICATION_TYPE":"U","BSTAR":"-0.00009987000000","RCS_SIZE":"LARGE","DECAY_DATE":null,"SITE":"AFETR","EPOCH":"2023-01-23T12:32:22.868160","ARG_OF_PERICENTER":"97.2898","CENTER_NAME":"EARTH","LAUNCH_DATE":"2020-08-07","PERIAPSIS":"546.258","ECCENTRICITY":"0.00013540","MEAN_ANOMALY":"262.8245","INCLINATION":"53.0515","MEAN_MOTION":"15.06405744","RA_OF_ASC_NODE":"199.5282","OBJECT_ID":"2020-055AC","MEAN_ELEMENT_THEORY":"SGP4","TLE_LINE1":"1 46053U 20055AC  23023.52248690 -.00001769  00000-0 -99870-4 0  9998","SEMIMAJOR_AXIS":"6925.331","EPHEMERIS_TYPE":"0","ELEMENT_SET_NO":"999","MEAN_MOTION_DOT":"-0.00001769"},{"GP_ID":"223611031","PERIOD":"95.591","TIME_SYSTEM":"UTC","REF_FRAME":"TEME","MEAN_MOTION_DDOT":"0.0000000000000","BSTAR":"0.00008119700000","CLASSIFICATION_TYPE":"U","NORAD_CAT_ID":"46054","FILE":"3758707","OBJECT_NAME":"STARLINK-1548","OBJECT_TYPE":"PAYLOAD","APOAPSIS":"548.182","TLE_LINE2":"2 46054  53.0518 199.7929 0001443  91.3005 268.8149 15.06410193136489","REV_AT_EPOCH":"13648","COUNTRY_CODE":"US","MEAN_ANOMALY":"268.8149","OBJECT_ID":"2020-055AD","RA_OF_ASC_NODE":"199.7929","MEAN_MOTION":"15.06410193","INCLINATION":"53.0518","MEAN_ELEMENT_THEORY":"SGP4","MEAN_MOTION_DOT":"0.00000928","ELEMENT_SET_NO":"999","SEMIMAJOR_AXIS":"6925.317","EPHEMERIS_TYPE":"0","TLE_LINE1":"1 46054U 20055AD  23023.46350808  .00000928  00000-0  81197-4 0  9994","DECAY_DATE":null,"RCS_SIZE":"LARGE","SITE":"AFETR","ARG_OF_PERICENTER":"91.3005","EPOCH":"2023-01-23T11:07:27.098112","ECCENTRICITY":"0.00014430","PERIAPSIS":"546.183","LAUNCH_DATE":"2020-08-07","CENTER_NAME":"EARTH"}];
